[{"OBJECT_NAME":"STARLINK-36035","OBJECT_ID":"2025-298H","EPOCH":"2026-03-09T22:04:54.591456","MEAN_MOTION":14.99141738,"ECCENTRICITY":0.0002157,"INCLINATION":70.0024,"RA_OF_ASC_NODE":13.8096,"ARG_OF_PERICENTER":277.7374,"MEAN_ANOMALY":82.3541,"EPHEMERIS_TYPE":0,"CLASSIFICATION_TYPE":"U","NORAD_CAT_ID":67082,"ELEMENT_SET_NO":999,"REV_AT_EPOCH":1325,"BSTAR":0.00054139033,"MEAN_MOTION_DOT":6.509e-5,"MEAN_MOTION_DDOT":0},{"OBJECT_NAME":"CZ-6A DEB","OBJECT_ID":"2022-151AEC","EPOCH":"2026-03-09T16:07:43.414464","MEAN_MOTION":15.01082395,"ECCENTRICITY":0.0040922,"INCLINATION":98.632,"RA_OF_ASC_NODE":144.2747,"ARG_OF_PERICENTER":190.1613,"MEAN_ANOMALY":169.8786,"EPHEMERIS_TYPE":0,"CLASSIFICATION_TYPE":"U","NORAD_CAT_ID":56604,"ELEMENT_SET_NO":999,"REV_AT_EPOCH":16341,"BSTAR":0.005850488,"MEAN_MOTION_DOT":0.00076879,"MEAN_MOTION_DDOT":0}]
